ONEWEB-0029             
1 45445U 20020X   24325.49676302 -.00000288  00000+0 -84860-3 0  9997
2 45445  87.8879 135.3629 0001719  90.5161 269.6164 13.11414979227476
ONEWEB-0068             
1 45446U 20020Y   24324.48026620  .00000476  00000+0  13059-2 0  9996
2 45446  87.8881 135.5505 0001644  87.9750 272.1567 13.11415836227273
ONEWEB-0046             
1 45447U 20020Z   24324.47773657  .00000547  00000+0  15079-2 0  9998
2 45447  87.8882 135.5631 0001736  98.7970 261.3354 13.11415818227286
ONEWEB-0063             
1 45448U 20020AA  24324.50654878 -.00000478  00000+0 -13851-2 0  9997
2 45448  87.8880 135.5571 0001519 101.2088 258.9211 13.11415427227377
ONEWEB-0019             
1 45449U 20020AB  24324.48112620  .00000446  00000+0  12239-2 0  9991
2 45449  87.8885 135.5714 0001387  91.2561 268.8726 13.11414110227211
ONEWEB-0094             
1 45450U 20020AC  24324.44446530  .00000064  00000+0  13108-3 0  9992
2 45450  87.9078 120.3331 0001697  95.7914 264.3411 13.17648369230622
ONEWEB-0087             
1 45451U 20020AD  24324.51656978 -.00000437  00000+0 -12680-2 0  9999
2 45451  87.8874 135.5196 0001763  89.0659 271.0670 13.11419911227260
ONEWEB-0082             
1 45452U 20020AE  24324.51331766 -.00000471  00000+0 -13654-2 0  9995
2 45452  87.8881 135.5315 0001554  84.6109 275.5196 13.11418617227355
ONEWEB-0050             
1 45453U 20020AF  24324.51922049  .00003631  00000+0  35281-3 0  9996
2 45453  88.0021 348.7739 0001368 158.7455 201.3832 14.92364299254768
ONEWEB-0034             
1 45454U 20020AG  24325.45093322  .00000084  00000+0  20058-3 0  9999
2 45454  87.8881 135.3644 0001540  90.0156 270.1149 13.11417487227407
ONEWEB-0060             
1 45455U 20020AH  24325.41714884 -.00000188  00000+0 -56676-3 0  9991
2 45455  87.8882 135.3914 0001536  97.5263 262.6040 13.11416935227352
ONEWEB-0086             
1 45456U 20020AJ  24324.48451032  .00000331  00000+0  89739-3 0  9995
2 45456  87.8880 135.5564 0001940  87.9778 272.1572 13.11414942227281
ONEWEB-0088             
1 45457U 20020AK  24325.45432675  .00000240  00000+0  64056-3 0  9990
2 45457  87.8878 135.3223 0001648  91.3576 268.7741 13.11419797227359
ONEWEB-0102             
1 47258U 20100A   24325.37387718  .00000371  00000+0  99559-3 0  9999
2 47258  87.8861 104.9515 0001368  97.3920 262.7364 13.12441538189469
ONEWEB-0109             
1 47259U 20100B   24324.84832910  .00000481  00000+0  13020-2 0  9990
2 47259  87.8862 105.0224 0001411  96.7212 263.4077 13.12443267189220
ONEWEB-0110             
1 47260U 20100C   24325.40792711 -.00000129  00000+0 -39518-3 0  9991
2 47260  87.8859 104.9075 0001525  92.7681 267.3623 13.12439294189463
ONEWEB-0111             
1 47261U 20100D   24324.44766264  .00000129  00000+0  32370-3 0  9996
2 47261  87.8857 105.1027 0001480  96.8007 263.3289 13.12446571189177
ONEWEB-0114             
1 47262U 20100E   24325.31708229  .00000440  00000+0  11881-2 0  9990
2 47262  87.8861 104.9383 0001145 102.6707 257.4549 13.12445163189243
ONEWEB-0117             
1 47263U 20100F   24325.38523187  .00000533  00000+0  14452-2 0  9996
2 47263  87.8863 104.9068 0001548  97.1239 263.0066 13.12440384189260
ONEWEB-0118             
1 47264U 20100G   24325.34142675 -.00000302  00000+0 -87586-3 0  9997
2 47264  87.8861 104.9183 0001443 112.7513 247.3768 13.12441874189450
ONEWEB-0119             
1 47265U 20100H   24324.45416721  .00000348  00000+0  93229-3 0  9994
2 47265  87.8857 105.1341 0001527  95.0538 265.0764 13.12441731189318
ONEWEB-0120             
1 47266U 20100J   24324.85819479  .00000214  00000+0  56005-3 0  9999
2 47266  87.8864 105.0452 0001329 100.3975 259.7303 13.12438622189396
ONEWEB-0121             
1 47267U 20100K   24324.84670735  .00000488  00000+0  13197-2 0  9996
2 47267  87.8855 105.0301 0001598  93.2432 266.8879 13.12440746189304
ONEWEB-0122             
1 47268U 20100L   24324.84168319  .00000314  00000+0  83846-3 0  9994
2 47268  87.8857 105.0362 0001402  92.2836 267.8453 13.12445641189213
ONEWEB-0123             
1 47269U 20100M   24325.37063535  .00000203  00000+0  52863-3 0  9990
2 47269  87.8862 104.9499 0001537 100.7982 259.3319 13.12441704189421
ONEWEB-0124             
1 47270U 20100N   24325.35926335 -.00000077  00000+0 -25011-3 0  9992
2 47270  87.8857 104.9493 0001742  93.9495 266.1833 13.12442159189300
ONEWEB-0125             
1 47271U 20100P   24324.42172606 -.00001065  00000+0 -29957-2 0  9994
2 47271  87.8892 105.0967 0001415 113.4128 246.7149 13.12432743189241
ONEWEB-0126             
1 47272U 20100Q   24324.44684253  .00000114  00000+0  28286-3 0  9990
2 47272  87.8856 105.0920 0001385  98.8971 261.2314 13.12446770189318
ONEWEB-0127             
1 47273U 20100R   24325.39982757  .00000220  00000+0  57505-3 0  9990
2 47273  87.8867 104.9357 0001355  97.5661 262.5622 13.12442354189468
ONEWEB-0128             
1 47274U 20100S   24324.81261552 -.00000398  00000+0 -11430-2 0  9994
2 47274  87.8868 105.0659 0001461  86.2374 273.8922 13.12434964189401
ONEWEB-0129             
1 47275U 20100T   24325.40145158  .00000136  00000+0  34155-3 0  9992
2 47275  87.8863 104.9057 0000412 150.5186 209.5966 13.12441165189414
ONEWEB-0130             
1 47276U 20100U   24324.43791968 -.00000636  00000+0 -18046-2 0  9998
2 47276  87.8859 105.1030 0001385  92.7384 267.3903 13.12443073189256
ONEWEB-0131             
1 47277U 20100V   24324.43467488 -.00000507  00000+0 -14460-2 0  9999
2 47277  87.8861 105.1227 0001512  92.9422 267.1879 13.12441212189292
ONEWEB-0132             
1 47278U 20100W   24324.84507262  .00000436  00000+0  11760-2 0  9999
2 47278  87.8863 105.0429 0001772  95.3893 264.7438 13.12445380189244
ONEWEB-0133             
1 47279U 20100X   24325.39496442  .00000347  00000+0  92861-3 0  9991
2 47279  87.8860 104.9230 0001579  94.3322 265.7987 13.12441940189474
ONEWEB-0134             
1 47280U 20100Y   24325.36414044  .00000031  00000+0  49642-4 0  9998
2 47280  87.8856 104.9152 0001336  87.5740 272.5542 13.12445097189440
ONEWEB-0135             
1 47281U 20100Z   24324.80127296 -.00000331  00000+0 -95644-3 0  9994
2 47281  87.8861 105.0525 0001448  76.6352 283.4938 13.12443559189390
ONEWEB-0136             
1 47282U 20100AA  24324.43956164 -.00000082  00000+0 -26387-3 0  9999
2 47282  87.8862 105.0921 0001148  80.3881 279.7378 13.12445614189275
ONEWEB-0137             
1 47283U 20100AB  24324.47363086  .00000343  00000+0  91756-3 0  9999
2 47283  87.8857 105.1026 0001491 103.2698 256.8597 13.12442036189183
ONEWEB-0138             
1 47284U 20100AC  24325.36737513  .00000108  00000+0  26410-3 0  9993
2 47284  87.8858 104.9365 0001413  96.2081 263.9209 13.12445282189386
ONEWEB-0139             
1 47285U 20100AD  24324.41536111 -.00000252  00000+0 -73508-3 0  9992
2 47285  87.8861 105.1041 0001474  96.7463 263.3833 13.12443620189337
ONEWEB-0140             
1 47286U 20100AE  24324.44606268  .00000093  00000+0  22237-3 0  9991
2 47286  87.8853 105.0962 0001447  92.5336 267.5958 13.12443360189305
ONEWEB-0141             
1 47287U 20100AF  24325.40616900  .00000039  00000+0  73291-4 0  9990
2 47287  87.8860 104.9188 0001570 103.6820 256.4484 13.12439588189411
ONEWEB-0142             
1 47288U 20100AG  24325.37469956  .00000439  00000+0  11845-2 0  9993
2 47288  87.8862 104.9060 0001286 104.3013 255.8258 13.12444412189402
ONEWEB-0143             
1 47289U 20100AH  24324.41360754 -.00000122  00000+0 -37516-3 0  9999
2 47289  87.8862 105.1199 0001538  97.0613 263.0690 13.12441699189251
ONEWEB-0144             
1 47290U 20100AJ  24325.37712529  .00000429  00000+0  11565-2 0  9991
2 47290  87.8860 104.9103 0001188  99.6533 260.4730 13.12441055189301
ONEWEB-0145             
1 47291U 20100AK  24325.34789914 -.00000406  00000+0 -11633-2 0  9994
2 47291  87.8862 104.9406 0001619 100.9182 259.2128 13.12440225189490
ONEWEB-0146             
1 47292U 20100AL  24325.34465849 -.00000628  00000+0 -17819-2 0  9991
2 47292  87.8861 104.9261 0001892  93.7768 266.3576 13.12441989189406
ONEWEB-0147             
1 47293U 20100AM  24324.47200540  .00000410  00000+0  11050-2 0  9998
2 47293  87.8855 105.0883 0001347  85.0991 275.0291 13.12439348189181
ONEWEB-0115             
1 48042U 21025A   24325.25341790 -.00000002  00000+0 -40050-4 0  9991
2 48042  87.8920  74.3846 0001724 100.2351 259.8973 13.13469710178264
ONEWEB-0152             
1 48043U 21025B   24325.26609539 -.00000199  00000+0 -58057-3 0  9993
2 48043  87.8921  74.3858 0001663  99.1086 261.0231 13.13469351178221
ONEWEB-0153             
1 48044U 21025C   24324.63446076 -.00000093  00000+0 -28881-3 0  9994
2 48044  87.8926  74.5035 0001582 102.6242 257.5064 13.13470496178125
ONEWEB-0154             
1 48045U 21025D   24325.31687215  .00000221  00000+0  57086-3 0  9993
2 48045  87.8926  74.3742 0001651  99.2071 260.9244 13.13472510178180
ONEWEB-0116             
1 48046U 21025E   24325.28195764  .00000189  00000+0  48316-3 0  9992
2 48046  87.8927  74.3548 0001743  98.3693 261.7633 13.13470490178319
ONEWEB-0150             
1 48047U 21025F   24324.34243738 -.00000255  00000+0 -73282-3 0  9990
2 48047  87.8918  74.5515 0001603 108.0336 252.0968 13.13468815178080
ONEWEB-0107             
1 48048U 21025G   24325.25815228 -.00000174  00000+0 -51059-3 0  9999
2 48048  87.8919  74.3669 0001274 110.5976 249.5289 13.13473355178185
ONEWEB-0101             
1 48049U 21025H   24324.76459413  .00000427  00000+0  11333-2 0  9994
2 48049  87.8927  74.4912 0001529 101.1674 258.9627 13.13469030178096
ONEWEB-0113             
1 48050U 21025J   24325.27562176  .00000916  00000+0  24719-2 0  9999
2 48050  87.8927  74.3697 0001793  99.7514 260.3817 13.13469432178246
ONEWEB-0112             
1 48051U 21025K   24325.26292447  .00000710  00000+0  19088-2 0  9995
2 48051  87.8914  74.3637 0001662 103.1217 257.0098 13.13463348178268
